[{"OBJECT_NAME":"STARLINK-30389","OBJECT_ID":"2023-134N","EPOCH":"2026-03-09T22:00:01.999584","MEAN_MOTION":15.16403467,"ECCENTRICITY":0.00019924,"INCLINATION":43.0002,"RA_OF_ASC_NODE":195.6102,"ARG_OF_PERICENTER":266.5595,"MEAN_ANOMALY":76.2223,"EPHEMERIS_TYPE":0,"CLASSIFICATION_TYPE":"U","NORAD_CAT_ID":57783,"ELEMENT_SET_NO":999,"REV_AT_EPOCH":578,"BSTAR":0.003849227,"MEAN_MOTION_DOT":0.00076742,"MEAN_MOTION_DDOT":0},{"OBJECT_NAME":"CZ-6A DEB","OBJECT_ID":"2022-151AAS","EPOCH":"2026-03-09T03:45:24.122016","MEAN_MOTION":15.06999256,"ECCENTRICITY":0.00393195,"INCLINATION":98.6364,"RA_OF_ASC_NODE":147.7741,"ARG_OF_PERICENTER":181.1546,"MEAN_ANOMALY":178.9594,"EPHEMERIS_TYPE":0,"CLASSIFICATION_TYPE":"U","NORAD_CAT_ID":55894,"ELEMENT_SET_NO":999,"REV_AT_EPOCH":17150,"BSTAR":0.0072812999,"MEAN_MOTION_DOT":0.00112507,"MEAN_MOTION_DDOT":0}]
